[{"OBJECT_NAME":"STARLINK-32558","OBJECT_ID":"2024-225G","EPOCH":"2026-03-09T22:57:39.963456","MEAN_MOTION":14.98337034,"ECCENTRICITY":0.00035819,"INCLINATION":70.0012,"RA_OF_ASC_NODE":163.8361,"ARG_OF_PERICENTER":277.1062,"MEAN_ANOMALY":82.969,"EPHEMERIS_TYPE":0,"CLASSIFICATION_TYPE":"U","NORAD_CAT_ID":62169,"ELEMENT_SET_NO":999,"REV_AT_EPOCH":6991,"BSTAR":0.00056610831,"MEAN_MOTION_DOT":6.67e-5,"MEAN_MOTION_DDOT":0},{"OBJECT_NAME":"SL-8 DEB","OBJECT_ID":"1971-114C","EPOCH":"2026-03-09T10:06:38.914272","MEAN_MOTION":14.97936297,"ECCENTRICITY":0.00069633,"INCLINATION":74.0033,"RA_OF_ASC_NODE":186.861,"ARG_OF_PERICENTER":298.1447,"MEAN_ANOMALY":61.9034,"EPHEMERIS_TYPE":0,"CLASSIFICATION_TYPE":"U","NORAD_CAT_ID":5778,"ELEMENT_SET_NO":999,"REV_AT_EPOCH":88447,"BSTAR":0.0010014796,"MEAN_MOTION_DOT":0.00011794,"MEAN_MOTION_DDOT":0}]
